NORAD_CAT_ID,OBJECT_NAME,OBJECT_TYPE,EPOCH,MEAN_MOTION,ECCENTRICITY,INCLINATION,RA_OF_ASC_NODE,ARG_OF_PERICENTER,MEAN_ANOMALY,BSTAR,MEAN_MOTION_DOT,MEAN_MOTION_DDOT,TLE_LINE0,TLE_LINE1,TLE_LINE2,SEMIMAJOR_AXIS,PERIOD,APOGEE,PERIGEE,DECAYED
55654.0,STARLINK-5070,PAYLOAD,2023-08-07 06:38:34,14.98323322,0.0002794,69.9995,48.3378,269.8698,90.2141,-5.4864e-05,-7.47e-06,0.0,0 STARLINK-5070,1 55654U 23021AC  23219.27678471 -.00000747  00000-0 -54864-4 0  9993,2 55654  69.9995  48.3378 0002794 269.8698  90.2141 14.98323322 26874,6950.214,96.107,574.02,570.137,0.0
55654.0,STARLINK-5070,PAYLOAD,2023-08-07 19:27:38,14.98328654,0.0002725,69.9997,46.991,267.2597,92.825,-6.6094e-07,-1.01e-06,0.0,0 STARLINK-5070,1 55654U 23021AC  23219.81086096 -.00000101  00000-0 -66094-6 0  9993,2 55654  69.9997  46.9910 0002725 267.2597  92.8250 14.98328654 26957,6950.197,96.107,573.956,570.168,0.0
55654.0,STARLINK-5070,PAYLOAD,2023-08-08 22:41:54,14.98335557,0.0002847,69.9996,44.1292,268.5249,91.5584,0.00019873,2.279e-05,0.0,0 STARLINK-5070,1 55654U 23021AC  23220.94577029  .00002279  00000-0  19873-3 0  9996,2 55654  69.9996  44.1292 0002847 268.5249  91.5584 14.98335557 27128,6950.176,96.107,574.019,570.062,0.0
55654.0,STARLINK-5070,PAYLOAD,2023-08-09 05:06:27,14.98327011,0.00028,69.9997,43.4558,269.0457,91.0382,0.00014523,1.64e-05,0.0,0 STARLINK-5070,1 55654U 23021AC  23221.21281676  .00001640  00000-0  14523-3 0  9995,2 55654  69.9997  43.4558 0002800 269.0457  91.0382 14.98327011 27163,6950.202,96.107,574.013,570.121,0.0
55654.0,STARLINK-5070,PAYLOAD,2023-08-10 05:08:28,14.98329997,0.0002654,70.0001,40.9306,271.0266,89.0589,1.4113e-05,7.5e-07,0.0,0 STARLINK-5070,1 55654U 23021AC  23222.21421740  .00000075  00000-0  14113-4 0  9991,2 55654  70.0001  40.9306 0002654 271.0266  89.0589 14.98329997 27311,6950.193,96.107,573.902,570.213,0.0
55654.0,STARLINK-5070,PAYLOAD,2023-08-10 22:45:56,14.98339505,0.0002846,69.9999,39.0796,268.3623,91.721,-6.499e-05,-8.69e-06,0.0,0 STARLINK-5070,1 55654U 23021AC  23222.94856978 -.00000869  00000-0 -64990-4 0  9997,2 55654  69.9999  39.0796 0002846 268.3623  91.7210 14.98339505 27424,6950.163,96.106,574.007,570.05,0.0
55654.0,STARLINK-5070,PAYLOAD,2023-08-11 05:10:29,14.98328568,0.0002926,69.9997,38.4061,270.0278,90.0545,-5.2856e-05,-7.24e-06,0.0,0 STARLINK-5070,1 55654U 23021AC  23223.21561524 -.00000724  00000-0 -52856-4 0  9996,2 55654  69.9997  38.4061 0002926 270.0278  90.0545 14.98328568 27469,6950.197,96.107,574.096,570.029,0.0
55654.0,STARLINK-5070,PAYLOAD,2023-08-12 10:00:54,14.98327761,0.0002953,70.0,35.3762,269.2572,90.8249,-4.0754e-06,-1.42e-06,0.0,0 STARLINK-5070,1 55654U 23021AC  23224.41729439 -.00000142  00000-0 -40754-5 0  9999,2 55654  70.0000  35.3762 0002953 269.2572  90.8249 14.98327761 27641,6950.2,96.107,574.117,570.012,0.0
55654.0,STARLINK-5070,PAYLOAD,2023-08-13 10:02:54,14.98329953,0.0002936,70.0001,32.8512,270.0905,89.9918,5.0029e-05,5.04e-06,0.0,0 STARLINK-5070,1 55654U 23021AC  23225.41869072  .00000504  00000-0  50029-4 0  9993,2 55654  70.0001  32.8512 0002936 270.0905  89.9918 14.98329953 27791,6950.193,96.107,574.099,570.017,0.0
55654.0,STARLINK-5070,PAYLOAD,2023-08-13 18:03:35,14.98300715,0.0002596,70.0,32.0096,269.5879,90.4982,0.00055216,6.496e-05,0.0,0 STARLINK-5070,1 55654U 23021AC  23225.75249625  .00006496  00000-0  55216-3 0  9994,2 55654  70.0000  32.0096 0002596 269.5879  90.4982 14.98300715 27843,6950.283,96.109,573.953,570.344,0.0
55654.0,STARLINK-5070,PAYLOAD,2023-08-13 21:15:51,14.98332786,0.0003012,70.0,31.6729,270.3873,89.6941,4.2298e-05,4.12e-06,0.0,0 STARLINK-5070,1 55654U 23021AC  23225.88600878  .00000412  00000-0  42298-4 0  9998,2 55654  70.0000  31.6729 0003012 270.3873  89.6941 14.98332786 27869,6950.184,96.107,574.143,569.956,0.0
55654.0,STARLINK-5070,PAYLOAD,2023-08-14 22:54:00,14.98334074,0.0002978,70.0001,28.9795,270.9665,89.1153,2.2933e-05,1.81e-06,0.0,0 STARLINK-5070,1 55654U 23021AC  23226.95416721  .00000181  00000-0  22933-4 0  9996,2 55654  70.0001  28.9795 0002978 270.9665  89.1153 14.98334074 28028,6950.18,96.107,574.115,569.976,0.0
55654.0,STARLINK-5070,PAYLOAD,2023-08-16 10:08:57,14.98329651,0.0002856,70.0,25.2764,269.7443,90.3388,-2.4067e-05,-3.8e-06,0.0,0 STARLINK-5070,1 55654U 23021AC  23228.42288913 -.00000380  00000-0 -24067-4 0  9993,2 55654  70.0000  25.2764 0002856 269.7443  90.3388 14.98329651 28241,6950.194,96.107,574.044,570.074,0.0
55654.0,STARLINK-5070,PAYLOAD,2023-08-17 10:10:58,14.98327964,0.0002919,69.9989,22.7515,271.3715,88.711,-5.6448e-06,-1.6e-06,0.0,0 STARLINK-5070,1 55654U 23021AC  23229.42428901 -.00000160  00000-0 -56448-5 0  9992,2 55654  69.9989  22.7515 0002919 271.3715  88.7110 14.98327964 28396,6950.199,96.107,574.093,570.035,0.0
55654.0,STARLINK-5070,PAYLOAD,2023-08-18 10:12:58,14.98334155,0.0003072,70.0003,20.2275,270.611,89.4697,4.3698e-05,4.28e-06,0.0,0 STARLINK-5070,1 55654U 23021AC  23230.42568241  .00000428  00000-0  43698-4 0  9993,2 55654  70.0003  20.2275 0003072 270.6110  89.4697 14.98334155 28549,6950.18,96.107,574.18,569.91,0.0
55654.0,STARLINK-5070,PAYLOAD,2023-08-19 10:15:01,14.98252873,0.0003126,70.0011,17.7018,262.7823,97.298,0.0011821,0.00014012,0.0,0 STARLINK-5070,1 55654U 23021AC  23231.42710045  .00014012  00000-0  11821-2 0  9990,2 55654  70.0011  17.7018 0003126 262.7823  97.2980 14.98252873 28691,6950.431,96.112,574.469,570.124,0.0
55654.0,STARLINK-5070,PAYLOAD,2023-08-19 19:51:48,14.98328077,0.0003053,70.0006,16.6917,268.9985,91.0824,-7.9559e-06,-1.88e-06,0.0,0 STARLINK-5070,1 55654U 23021AC  23231.82764613 -.00000188  00000-0 -79559-5 0  9990,2 55654  70.0006  16.6917 0003053 268.9985  91.0824 14.98328077 28753,6950.199,96.107,574.186,569.942,0.0
55654.0,STARLINK-5070,PAYLOAD,2023-08-20 18:17:41,14.98335939,0.000248,70.0013,14.3353,262.6132,97.4745,-9.5609e-05,-1.234e-05,0.0,0 STARLINK-5070,1 55654U 23021AC  23232.76228386 -.00001234  00000-0 -95609-4 0  9992,2 55654  70.0013  14.3353 0002480 262.6132  97.4745 14.98335939 28890,6950.175,96.107,573.763,570.316,0.0
55654.0,STARLINK-5070,PAYLOAD,2023-08-21 11:55:10,14.98327229,0.0002901,70.0013,12.4839,270.5546,89.5281,3.2051e-05,2.89e-06,0.0,0 STARLINK-5070,1 55654U 23021AC  23233.49664597  .00000289  00000-0  32051-4 0  9990,2 55654  70.0013  12.4839 0002901 270.5546  89.5281 14.98327229 29007,6950.201,96.107,574.083,570.05,0.0
55654.0,STARLINK-5070,PAYLOAD,2023-08-22 11:57:11,14.98327127,0.0002657,70.0016,9.959,261.4879,98.5979,-1.2198e-05,-2.38e-06,0.0,0 STARLINK-5070,1 55654U 23021AC  23234.49804816 -.00000238  00000-0 -12198-4 0  9997,2 55654  70.0016   9.9590 0002657 261.4879  98.5979 14.98327127 29158,6950.202,96.107,573.913,570.22,0.0
55654.0,STARLINK-5070,PAYLOAD,2023-08-23 11:59:12,14.98307587,0.0002924,70.002,7.4349,263.4636,96.619,0.00037306,4.359e-05,0.0,0 STARLINK-5070,1 55654U 23021AC  23235.49945154  .00004359  00000-0  37306-3 0  9992,2 55654  70.0020   7.4349 0002924 263.4636  96.6190 14.98307587 29307,6950.262,96.108,574.159,570.095,0.0
55654.0,STARLINK-5070,PAYLOAD,2023-08-24 12:01:13,14.98325629,0.0003024,70.002,4.9116,265.4189,94.6624,-7.5859e-06,-1.83e-06,0.0,0 STARLINK-5070,1 55654U 23021AC  23236.50084944 -.00000183  00000-0 -75859-5 0  9996,2 55654  70.0020   4.9116 0003024 265.4189  94.6624 14.98325629 29754,6950.206,96.107,574.173,569.97,0.0
55654.0,STARLINK-5070,PAYLOAD,2023-08-25 10:27:05,14.98332586,0.0003028,70.0022,2.556,265.2407,94.8406,1.4711e-05,8.3e-07,0.0,0 STARLINK-5070,1 55654U 23021AC  23237.43548476  .00000083  00000-0  14711-4 0  9990,2 55654  70.0022   2.5560 0003028 265.2407  94.8406 14.98332586 29590,6950.185,96.107,574.154,569.945,0.0
55654.0,STARLINK-5070,PAYLOAD,2023-08-25 13:39:21,14.983328,0.000302,70.0021,2.2193,264.8877,95.1938,1.8972e-05,1.33e-06,0.0,0 STARLINK-5070,1 55654U 23021AC  23237.56900427  .00000133  00000-0  18972-4 0  9991,2 55654  70.0021   2.2193 0003020 264.8877  95.1938 14.98332800 29915,6950.184,96.107,574.148,569.95,0.0
55654.0,STARLINK-5070,PAYLOAD,2023-08-25 18:27:45,14.98336089,0.0003058,70.0018,1.713,267.3013,92.7796,4.7052e-05,4.69e-06,0.0,0 STARLINK-5070,1 55654U 23021AC  23237.76928094  .00000469  00000-0  47052-4 0  9996,2 55654  70.0018   1.7130 0003058 267.3013  92.7796 14.98336089 29948,6950.174,96.107,574.164,569.914,0.0
55654.0,STARLINK-5070,PAYLOAD,2023-08-26 10:29:06,14.983272,0.0002861,70.0019,0.029,261.784,98.2994,1.7789e-05,1.19e-06,0.0,0 STARLINK-5070,1 55654U 23021AC  23238.43688625  .00000119  00000-0  17789-4 0  9990,2 55654  70.0019   0.0290 0002861 261.7840  98.2994 14.98327200 29749,6950.202,96.107,574.055,570.078,0.0
55654.0,STARLINK-5070,PAYLOAD,2023-08-26 12:05:15,14.9832712,0.0002866,70.0019,359.8607,261.8549,98.2285,1.6302e-05,1.02e-06,0.0,0 STARLINK-5070,1 55654U 23021AC  23238.50364641  .00000102  00000-0  16302-4 0  9999,2 55654  70.0019 359.8607 0002866 261.8549  98.2285 14.98327120 30058,6950.202,96.107,574.059,570.075,0.0
55654.0,STARLINK-5070,PAYLOAD,2023-08-26 18:29:47,14.98331542,0.0002931,70.0019,359.187,270.7434,89.3389,3.2325e-05,2.93e-06,0.0,0 STARLINK-5070,1 55654U 23021AC  23238.77068378  .00000293  00000-0  32325-4 0  9990,2 55654  70.0019 359.1870 0002931 270.7434  89.3389 14.98331542 30091,6950.188,96.107,574.09,570.016,0.0
55654.0,STARLINK-5070,PAYLOAD,2023-08-27 08:54:59,14.98333637,0.0002919,70.002,357.6724,271.3847,88.6978,-7.1585e-06,-1.78e-06,0.0,0 STARLINK-5070,1 55654U 23021AC  23239.37152268 -.00000178  00000-0 -71585-5 0  9995,2 55654  70.0020 357.6724 0002919 271.3847  88.6978 14.98333637 29883,6950.182,96.107,574.075,570.018,0.0
55654.0,STARLINK-5070,PAYLOAD,2023-08-27 16:55:39,14.98334609,0.0002919,70.0021,356.8309,271.7646,88.3179,5.7033e-06,-2.5e-07,0.0,0 STARLINK-5070,1 55654U 23021AC  23239.70532083 -.00000025  00000-0  57033-5 0  9991,2 55654  70.0021 356.8309 0002919 271.7646  88.3179 14.98334609 30236,6950.179,96.107,574.072,570.015,0.0
